[{"OBJECT_NAME":"JILIN-1 GAOFEN 3J","OBJECT_ID":"2020-065J","EPOCH":"2026-03-09T22:30:27.627264","MEAN_MOTION":15.75586121,"ECCENTRICITY":0.00041731,"INCLINATION":97.2394,"RA_OF_ASC_NODE":125.824,"ARG_OF_PERICENTER":135.626,"MEAN_ANOMALY":224.5341,"EPHEMERIS_TYPE":0,"CLASSIFICATION_TYPE":"U","NORAD_CAT_ID":46462,"ELEMENT_SET_NO":999,"REV_AT_EPOCH":30471,"BSTAR":0.0010197143,"MEAN_MOTION_DOT":0.00157536,"MEAN_MOTION_DDOT":0},{"OBJECT_NAME":"STARLINK-36798","OBJECT_ID":"2026-032B","EPOCH":"2026-03-09T19:18:16.411104","MEAN_MOTION":15.75209809,"ECCENTRICITY":0.00013999,"INCLINATION":97.2852,"RA_OF_ASC_NODE":255.3316,"ARG_OF_PERICENTER":72.0426,"MEAN_ANOMALY":288.0991,"EPHEMERIS_TYPE":0,"CLASSIFICATION_TYPE":"U","NORAD_CAT_ID":67798,"ELEMENT_SET_NO":999,"REV_AT_EPOCH":480,"BSTAR":0.00090535972,"MEAN_MOTION_DOT":0.00137219,"MEAN_MOTION_DDOT":0}]
